{
"type": "FeatureCollection",
"name": "jaipur",
"crs": { "type": "name", "properties": { "name": "urn:ogc:def:crs:OGC:1.3:CRS84" } },
"features": [
{ "type": "Feature", "properties": { "state": "Rajasthan", "district": "Jaipur" }, "geometry": { "type": "Polygon", "coordinates": [ [ [ 76.167343139648381, 27.80914115905756 ], [ 76.172920227050952, 27.807460784912166 ], [ 76.180419921875057, 27.812410354614315 ], [ 76.186241149902344, 27.819049835205078 ], [ 76.19040679931669, 27.826761245727823 ], [ 76.194129943847713, 27.831211090087834 ], [ 76.200546264648438, 27.828910827636776 ], [ 76.207733154297159, 27.8284912109375 ], [ 76.213806152343807, 27.832588195800895 ], [ 76.223281860351733, 27.840930938720817 ], [ 76.230140686035327, 27.848701477050781 ], [ 76.236228942871264, 27.854829788208008 ], [ 76.241638183593807, 27.853969573974609 ], [ 76.249389648437671, 27.849811553955305 ], [ 76.255737304687557, 27.844230651855582 ], [ 76.260086059570483, 27.839559555053938 ], [ 76.258377075195483, 27.834529876709041 ], [ 76.255462646484318, 27.830799102783317 ], [ 76.257202148437671, 27.826549530029524 ], [ 76.264183044433707, 27.822650909423828 ], [ 76.272956848144645, 27.815790176391658 ], [ 76.278999328613338, 27.811479568481559 ], [ 76.282676696777457, 27.805059432983455 ], [ 76.269706726074332, 27.807439804077148 ], [ 76.268112182617188, 27.806680679321346 ], [ 76.266998291015682, 27.80216026306158 ], [ 76.267326354980639, 27.798820495605526 ], [ 76.268157958984432, 27.793119430541935 ], [ 76.266036987304744, 27.789270401000977 ], [ 76.262626647949276, 27.785369873046875 ], [ 76.260238647460938, 27.780649185180664 ], [ 76.258331298828125, 27.77647972106945 ], [ 76.253181457519531, 27.770769119262695 ], [ 76.248435974121264, 27.769969940185831 ], [ 76.242088317871378, 27.768440246582088 ], [ 76.238517761230639, 27.765979766845646 ], [ 76.237968444824389, 27.760320663452148 ], [ 76.238288879394474, 27.754552841186637 ], [ 76.239112854004077, 27.748609542846737 ], [ 76.242073059082315, 27.743921279907454 ], [ 76.244682312011776, 27.738821029663086 ], [ 76.247642517089787, 27.73303031921381 ], [ 76.247886657715014, 27.727729797363395 ], [ 76.247802734375284, 27.722772598266715 ], [ 76.24822998046875, 27.717411041259766 ], [ 76.250236511230526, 27.711711883544979 ], [ 76.252037048339844, 27.704719543457031 ], [ 76.251358032226619, 27.698932647705135 ], [ 76.250419616699276, 27.694770812988281 ], [ 76.246620178222713, 27.693450927734375 ], [ 76.243209838867472, 27.692441940307617 ], [ 76.240325927734432, 27.690710067749023 ], [ 76.239295959472827, 27.687139511108455 ], [ 76.241355895996094, 27.684549331665039 ], [ 76.245376586914233, 27.682880401611328 ], [ 76.249900817871378, 27.680509567260799 ], [ 76.249542236328068, 27.67560005187994 ], [ 76.244552612304972, 27.675298690795898 ], [ 76.239738464355526, 27.675710678100643 ], [ 76.236785888671875, 27.676361083984432 ], [ 76.234123229980639, 27.674381256103629 ], [ 76.236343383789347, 27.670587539672852 ], [ 76.239982604980753, 27.669540405273551 ], [ 76.243347167968807, 27.667659759521712 ], [ 76.246231079101619, 27.664079666137638 ], [ 76.246788024902401, 27.658500671386662 ], [ 76.245048522949276, 27.65315055847168 ], [ 76.244155883789176, 27.646301269531193 ], [ 76.244873046875057, 27.640750885009822 ], [ 76.242416381835994, 27.634901046753157 ], [ 76.239242553710881, 27.631389617919922 ], [ 76.234237670898551, 27.62931060791027 ], [ 76.227226257324162, 27.629739761352653 ], [ 76.219520568847713, 27.631330490112418 ], [ 76.211662292480526, 27.633050918579102 ], [ 76.206481933593921, 27.632240295410156 ], [ 76.205383300781307, 27.62935066223173 ], [ 76.203048706054858, 27.628120422363395 ], [ 76.197669982910099, 27.628200531005916 ], [ 76.195121765136776, 27.626720428466911 ], [ 76.194137573242244, 27.619461059570312 ], [ 76.196006774902514, 27.611389160156193 ], [ 76.200782775878906, 27.606849670410156 ], [ 76.201461791992472, 27.60264968872076 ], [ 76.202682495117358, 27.59435081481962 ], [ 76.204589843750171, 27.586940765380859 ], [ 76.206611633301065, 27.579450607299918 ], [ 76.208183288574389, 27.571640014648665 ], [ 76.209228515625057, 27.564599990844783 ], [ 76.209960937500057, 27.557521820068359 ], [ 76.208496093750284, 27.550001144409237 ], [ 76.208702087402628, 27.541641235351562 ], [ 76.213127136230469, 27.539859771728572 ], [ 76.219596862792912, 27.537691116333008 ], [ 76.225357055664233, 27.535909652710188 ], [ 76.232910156250284, 27.529951095581225 ], [ 76.232139587402457, 27.523759841918945 ], [ 76.232231140136889, 27.518800735473633 ], [ 76.236167907715128, 27.514762878418026 ], [ 76.240432739257983, 27.508052825927848 ], [ 76.240898132324276, 27.501720428467024 ], [ 76.239807128906534, 27.493169784545955 ], [ 76.237182617187671, 27.48534011840826 ], [ 76.233352661132812, 27.478031158447266 ], [ 76.228965759277344, 27.47443962097168 ], [ 76.227470397949389, 27.467729568481673 ], [ 76.223846435547046, 27.46416091918968 ], [ 76.220268249511776, 27.462970733642578 ], [ 76.217048645019588, 27.462820053100586 ], [ 76.215171813965128, 27.460420608520508 ], [ 76.218078613281193, 27.45877838134777 ], [ 76.221282958984659, 27.457799911498967 ], [ 76.22336578369152, 27.455511093139592 ], [ 76.223297119140682, 27.447490692138672 ], [ 76.221427917480526, 27.442550659179801 ], [ 76.223281860351733, 27.43844032287592 ], [ 76.225296020508097, 27.432060241699332 ], [ 76.226776123046932, 27.422311782836971 ], [ 76.226158142089901, 27.417181015014592 ], [ 76.222862243652344, 27.405580520629996 ], [ 76.217132568359375, 27.40308952331543 ], [ 76.212097167968807, 27.398178100585938 ], [ 76.209068298340128, 27.393819808960188 ], [ 76.205093383789347, 27.387758255005053 ], [ 76.202568054199332, 27.383979797363395 ], [ 76.199172973633097, 27.382440567016658 ], [ 76.194046020507756, 27.380300521850643 ], [ 76.193237304687784, 27.37544059753418 ], [ 76.196746826172046, 27.37334060668951 ], [ 76.198326110839901, 27.369270324707259 ], [ 76.195137023925895, 27.364618301391715 ], [ 76.190872192382869, 27.359310150146598 ], [ 76.185867309570483, 27.351619720459212 ], [ 76.181213378906364, 27.344400405883903 ], [ 76.177421569824503, 27.340770721435604 ], [ 76.174591064453068, 27.334390640258846 ], [ 76.172958374023494, 27.328649520874137 ], [ 76.170883178710994, 27.321710586547795 ], [ 76.169403076172159, 27.317251205444336 ], [ 76.165626525878849, 27.316389083862532 ], [ 76.158531188965128, 27.316770553589095 ], [ 76.152847290039006, 27.317960739135856 ], [ 76.150619506835938, 27.309270858764819 ], [ 76.148742675781307, 27.304620742797908 ], [ 76.147476196289347, 27.298891067504883 ], [ 76.147293090820597, 27.291402816772688 ], [ 76.145240783691577, 27.287441253662109 ], [ 76.139877319335881, 27.285459518432674 ], [ 76.1368408203125, 27.283290863037109 ], [ 76.135810852050895, 27.278610229492358 ], [ 76.134742736816406, 27.272409439087141 ], [ 76.133216857910156, 27.266839981079102 ], [ 76.128768920898722, 27.262979507446289 ], [ 76.123786926269588, 27.259050369262752 ], [ 76.120567321777628, 27.255840301513729 ], [ 76.119041442871378, 27.249298095703352 ], [ 76.117912292480753, 27.242761611938477 ], [ 76.118728637695483, 27.237890243530217 ], [ 76.122673034668253, 27.234781265258789 ], [ 76.132682800293139, 27.231561660766602 ], [ 76.134811401367244, 27.230321884155273 ], [ 76.131248474121378, 27.223529815673771 ], [ 76.129112243652401, 27.216989517212028 ], [ 76.126167297363452, 27.212650299072379 ], [ 76.124328613281307, 27.208869934082088 ], [ 76.122436523437557, 27.20482063293457 ], [ 76.121498107910213, 27.201288223266658 ], [ 76.124519348144588, 27.201381683349723 ], [ 76.128143310546932, 27.202770233154297 ], [ 76.132247924804631, 27.204999923706282 ], [ 76.135131835937671, 27.209869384765739 ], [ 76.137588500976506, 27.215599060058878 ], [ 76.139877319335881, 27.220720291137923 ], [ 76.142196655273608, 27.225650787353516 ], [ 76.145988464355469, 27.227071762084961 ], [ 76.151077270507926, 27.226579666137695 ], [ 76.154281616210994, 27.223670959472656 ], [ 76.156288146972656, 27.22023963928217 ], [ 76.157440185546875, 27.213108062744141 ], [ 76.156539916992244, 27.207269668579045 ], [ 76.152786254882926, 27.204179763794059 ], [ 76.151107788086222, 27.197862625122127 ], [ 76.150657653808651, 27.192911148071403 ], [ 76.152099609375, 27.189348220825138 ], [ 76.155937194824389, 27.188020706176758 ], [ 76.162857055664119, 27.187700271606502 ], [ 76.168975830078182, 27.188070297241325 ], [ 76.172958374023494, 27.188770294189567 ], [ 76.178329467773494, 27.189292907714787 ], [ 76.180107116699503, 27.181579589843977 ], [ 76.181419372558878, 27.175329208373967 ], [ 76.183181762695312, 27.165960311889933 ], [ 76.183700561523722, 27.15697288513195 ], [ 76.183425903320312, 27.148309707641715 ], [ 76.180221557617244, 27.142410278320312 ], [ 76.178092956543026, 27.136791229248047 ], [ 76.180809020996151, 27.132961273193359 ], [ 76.187843322753963, 27.126020431518782 ], [ 76.196670532226847, 27.123651504516829 ], [ 76.200965881347827, 27.125431060791072 ], [ 76.206306457519702, 27.130100250244141 ], [ 76.21115875244152, 27.136610031127873 ], [ 76.214492797851733, 27.142351150512752 ], [ 76.218162536621151, 27.145910263061637 ], [ 76.225456237793082, 27.149049758911246 ], [ 76.233139038085881, 27.152378082275504 ], [ 76.23789215087919, 27.155380249023438 ], [ 76.241477966308707, 27.16127967834484 ], [ 76.244560241699503, 27.167539596557617 ], [ 76.248046875000171, 27.176059722900391 ], [ 76.251121520996264, 27.181289672851506 ], [ 76.256172180175895, 27.185199737548771 ], [ 76.262229919433651, 27.188631057739428 ], [ 76.266288757324503, 27.189130783081112 ], [ 76.270622253418026, 27.18819999694847 ], [ 76.273971557617188, 27.18466949462902 ], [ 76.275550842285156, 27.179258346557674 ], [ 76.277603149414062, 27.17127990722679 ], [ 76.279846191406534, 27.164970397949276 ], [ 76.283592224121151, 27.158540725708235 ], [ 76.284996032715128, 27.1507701873781 ], [ 76.28537750244169, 27.142522811889592 ], [ 76.286270141601619, 27.134151458740291 ], [ 76.28537750244169, 27.124170303344727 ], [ 76.284187316894588, 27.11604118347168 ], [ 76.282279968261776, 27.10714149475092 ], [ 76.281593322753849, 27.097440719604549 ], [ 76.281677246093807, 27.089780807495345 ], [ 76.281593322753849, 27.083351135254134 ], [ 76.281082153320312, 27.077278137207145 ], [ 76.286567687988281, 27.068571090698242 ], [ 76.286163330078068, 27.063060760498104 ], [ 76.285308837890682, 27.053791046142578 ], [ 76.28214263916044, 27.047700881958065 ], [ 76.273956298828068, 27.04391098022478 ], [ 76.264686584472713, 27.039569854736555 ], [ 76.259666442871094, 27.035898208618391 ], [ 76.255531311035213, 27.02605056762701 ], [ 76.249176025390625, 27.025800704956055 ], [ 76.242813110351676, 27.02515029907255 ], [ 76.236198425292912, 27.023780822753906 ], [ 76.232177734375284, 27.020601272583008 ], [ 76.232933044433878, 27.018341064453239 ], [ 76.234107971191406, 27.015991210937557 ], [ 76.232246398925952, 27.012510299682674 ], [ 76.227737426757869, 27.013090133667049 ], [ 76.223770141601847, 27.010900497436637 ], [ 76.221199035644588, 27.005689620971737 ], [ 76.220207214355639, 27.003778457641602 ], [ 76.219886779785213, 26.999059677124137 ], [ 76.216735839843693, 26.99039268493658 ], [ 76.210731506347713, 26.987398147583008 ], [ 76.206626892089787, 26.983829498291186 ], [ 76.203216552734375, 26.976810455322322 ], [ 76.199516296386832, 26.971309661865291 ], [ 76.196395874023438, 26.96499061584484 ], [ 76.195426940918139, 26.95415115356451 ], [ 76.194541931152401, 26.945339202880916 ], [ 76.194946289062614, 26.937391281128157 ], [ 76.195220947265796, 26.927740097046012 ], [ 76.193489074707031, 26.919830322265625 ], [ 76.193702697754077, 26.91472053527832 ], [ 76.197029113769588, 26.907051086425781 ], [ 76.197746276855526, 26.899118423461971 ], [ 76.193107604980469, 26.895481109619141 ], [ 76.188278198242472, 26.895809173584098 ], [ 76.183052062988338, 26.893579483032227 ], [ 76.181221008301065, 26.887662887573356 ], [ 76.178268432617358, 26.879501342773551 ], [ 76.183982849121264, 26.868431091308707 ], [ 76.191352844238565, 26.8618812561038 ], [ 76.204040527343807, 26.859550476074219 ], [ 76.218437194824503, 26.860322952270451 ], [ 76.231506347656307, 26.862220764160156 ], [ 76.241088867187557, 26.867267608642578 ], [ 76.248977661132756, 26.872041702270565 ], [ 76.255561828613338, 26.87454986572277 ], [ 76.262748718261889, 26.873939514160213 ], [ 76.267593383789119, 26.871650695800838 ], [ 76.266860961914347, 26.867420196533317 ], [ 76.262252807617244, 26.864610671997127 ], [ 76.257316589355582, 26.863212585449276 ], [ 76.250770568847713, 26.86184120178234 ], [ 76.247756958007869, 26.857040405273381 ], [ 76.247016906738395, 26.852510452270451 ], [ 76.24822998046875, 26.847690582275618 ], [ 76.252059936523608, 26.842861175537109 ], [ 76.257553100585881, 26.838581085205192 ], [ 76.261383056640625, 26.834310531616211 ], [ 76.261306762695369, 26.829780578613281 ], [ 76.258262634277457, 26.824710845947209 ], [ 76.256828308105639, 26.81763076782255 ], [ 76.256698608398494, 26.811679840088004 ], [ 76.255332946777344, 26.805469512939453 ], [ 76.250679016113565, 26.802370071411133 ], [ 76.243507385253906, 26.802131652832031 ], [ 76.238327026367358, 26.804990768432674 ], [ 76.232452392578182, 26.803890228271598 ], [ 76.226562500000057, 26.804220199584961 ], [ 76.221397399902401, 26.806209564208928 ], [ 76.217132568359375, 26.805660247802734 ], [ 76.214447021484318, 26.80116081237793 ], [ 76.209121704101562, 26.796369552612305 ], [ 76.201187133789119, 26.78931999206543 ], [ 76.198432922363224, 26.782270431518725 ], [ 76.199676513671932, 26.77716064453125 ], [ 76.199577331542912, 26.772060394287053 ], [ 76.195953369140568, 26.769821166992301 ], [ 76.190010070801065, 26.766170501708984 ], [ 76.186676025390682, 26.761371612548942 ], [ 76.186241149902344, 26.755712509155217 ], [ 76.190467834472827, 26.753700256347656 ], [ 76.197311401367358, 26.753400802612589 ], [ 76.199897766113395, 26.752822875976619 ], [ 76.198196411133097, 26.749420166015739 ], [ 76.196166992187671, 26.744329452514648 ], [ 76.197036743164176, 26.739231109619254 ], [ 76.201911926269702, 26.737510681152344 ], [ 76.207138061523494, 26.737472534179688 ], [ 76.210006713867301, 26.734348297119311 ], [ 76.208976745605639, 26.731521606445426 ], [ 76.210586547851676, 26.72979927062994 ], [ 76.214439392090128, 26.726390838623274 ], [ 76.212409973144702, 26.72244071960472 ], [ 76.208786010742358, 26.719341278076399 ], [ 76.20218658447277, 26.716270446777287 ], [ 76.197906494140796, 26.713739395141658 ], [ 76.194877624511776, 26.708080291748274 ], [ 76.188842773437614, 26.697910308837891 ], [ 76.181388854980526, 26.700231552124023 ], [ 76.180480957031534, 26.70420074462902 ], [ 76.179283142089901, 26.710430145263786 ], [ 76.175109863281364, 26.715259552001953 ], [ 76.169288635254077, 26.718118667602596 ], [ 76.164062500000284, 26.717590332031534 ], [ 76.157775878906534, 26.711950302124251 ], [ 76.152618408203409, 26.697248458862532 ], [ 76.160690307617358, 26.690990447998161 ], [ 76.161926269531307, 26.688142776489428 ], [ 76.161857604980639, 26.683050155639648 ], [ 76.160476684570256, 26.679660797119368 ], [ 76.160728454589844, 26.675130844116438 ], [ 76.163879394531534, 26.668889999389762 ], [ 76.163146972656193, 26.663219451904297 ], [ 76.165008544922159, 26.658689498901367 ], [ 76.167846679687557, 26.652999877929688 ], [ 76.170051574707202, 26.648460388183651 ], [ 76.174217224121094, 26.644468307495231 ], [ 76.178092956543026, 26.64246940612793 ], [ 76.181632995605753, 26.639619827270621 ], [ 76.183837890625057, 26.63507080078125 ], [ 76.183418273925952, 26.629421234130859 ], [ 76.181686401367358, 26.623760223388729 ], [ 76.185836791992131, 26.618921279907227 ], [ 76.185417175293253, 26.613550186157227 ], [ 76.184066772461051, 26.611289978027401 ], [ 76.18045806884794, 26.609600067138672 ], [ 76.175209045410327, 26.607088088989258 ], [ 76.172203063964901, 26.602291107177848 ], [ 76.170791625976562, 26.59607124328636 ], [ 76.167732238769531, 26.589281082153263 ], [ 76.161720275878963, 26.580249786376953 ], [ 76.16385650634777, 26.572031021118391 ], [ 76.163436889648494, 26.567501068115462 ], [ 76.161376953125114, 26.560710906982536 ], [ 76.157920837402401, 26.547981262207088 ], [ 76.157638549804858, 26.531841278076399 ], [ 76.154823303222713, 26.519390106201172 ], [ 76.150093078613338, 26.524730682373047 ], [ 76.145652770996264, 26.530141830444393 ], [ 76.141166687012003, 26.533000946044979 ], [ 76.136978149414347, 26.533601760864201 ], [ 76.131790161132869, 26.533069610595646 ], [ 76.126930236816577, 26.532819747924862 ], [ 76.122726440429688, 26.53341102600092 ], [ 76.118576049804688, 26.536540985107422 ], [ 76.114723205566577, 26.538829803466797 ], [ 76.110527038574389, 26.539989471435547 ], [ 76.107292175293139, 26.540000915527457 ], [ 76.103675842285327, 26.538030624389762 ], [ 76.099693298339844, 26.534660339355582 ], [ 76.097038269043026, 26.530981063842887 ], [ 76.093048095703182, 26.528150558471623 ], [ 76.088462829589901, 26.528730392455998 ], [ 76.083206176758097, 26.528730392455998 ], [ 76.078910827636776, 26.527839660644531 ], [ 76.076210021972827, 26.526130676269531 ], [ 76.073799133300838, 26.523530960083008 ], [ 76.069946289062557, 26.517789840698299 ], [ 76.068466186523494, 26.513790130615348 ], [ 76.066726684570369, 26.512050628662223 ], [ 76.061950683593807, 26.51278114318859 ], [ 76.055656433105526, 26.513410568237362 ], [ 76.050331115722713, 26.513731002807617 ], [ 76.045646667480412, 26.515171051025391 ], [ 76.04087066650419, 26.515439987182617 ], [ 76.037429809570597, 26.515171051025391 ], [ 76.034538269043082, 26.516719818115234 ], [ 76.032600402832088, 26.519519805908146 ], [ 76.029457092285156, 26.521371841430778 ], [ 76.027420043945369, 26.520309448242244 ], [ 76.025321960449276, 26.516822814941406 ], [ 76.024063110351847, 26.513702392578068 ], [ 76.021270751953296, 26.511039733886662 ], [ 76.017028808594034, 26.509149551391715 ], [ 76.013442993164233, 26.508819580078125 ], [ 76.010597229004077, 26.507999420166243 ], [ 76.008712768554688, 26.505460739135685 ], [ 76.005943298340128, 26.500030517578125 ], [ 76.00327301025419, 26.496480941772575 ], [ 75.999641418457315, 26.497201919555664 ], [ 75.994338989257756, 26.498260498046818 ], [ 75.985298156738338, 26.501720428466854 ], [ 75.981033325195483, 26.506420135498047 ], [ 75.980476379394702, 26.501659393310547 ], [ 75.968643188476733, 26.506740570068303 ], [ 75.963569641113338, 26.499250411987362 ], [ 75.957641601562557, 26.487541198730582 ], [ 75.947959899902628, 26.493858337402457 ], [ 75.931571960449503, 26.498100280761719 ], [ 75.928703308105753, 26.509710311889648 ], [ 75.907913208008097, 26.51488113403326 ], [ 75.898162841796989, 26.513690948486385 ], [ 75.882949829101506, 26.516651153564567 ], [ 75.879386901855639, 26.523700714111442 ], [ 75.850082397460994, 26.522859573364371 ], [ 75.842132568359318, 26.51947021484375 ], [ 75.837837219238338, 26.516611099243107 ], [ 75.830688476562443, 26.514810562134016 ], [ 75.820907592773551, 26.520189285278434 ], [ 75.811737060546932, 26.522359848022518 ], [ 75.804946899414006, 26.528709411621151 ], [ 75.798080444335881, 26.530981063842887 ], [ 75.794662475585938, 26.534999847412109 ], [ 75.801467895508097, 26.544410705566349 ], [ 75.79827880859375, 26.551279067993278 ], [ 75.793029785156307, 26.554161071777344 ], [ 75.791351318359489, 26.553699493408203 ], [ 75.784477233886832, 26.55060958862299 ], [ 75.776351928710938, 26.548240661621037 ], [ 75.768775939941463, 26.547622680664176 ], [ 75.767547607422159, 26.539989471435547 ], [ 75.768737792968921, 26.536630630493278 ], [ 75.772949218750171, 26.534711837768555 ], [ 75.778907775878963, 26.530099868774471 ], [ 75.763732910156534, 26.522100448608398 ], [ 75.756942749023438, 26.521650314331168 ], [ 75.755722045898722, 26.516410827636719 ], [ 75.761985778808878, 26.503189086914176 ], [ 75.766700744628963, 26.496231079101562 ], [ 75.768226623535213, 26.489170074463004 ], [ 75.765388488769588, 26.484611511230526 ], [ 75.767578125, 26.47661018371582 ], [ 75.765670776367188, 26.471300125122127 ], [ 75.764205932617244, 26.470710754394759 ], [ 75.762641906738452, 26.470090866089095 ], [ 75.757987976074503, 26.470848083496094 ], [ 75.752960205078182, 26.473449707031364 ], [ 75.744155883789233, 26.473150253295955 ], [ 75.743156433105469, 26.457040786743221 ], [ 75.739227294921932, 26.451240539550838 ], [ 75.733482360839844, 26.453479766845817 ], [ 75.729118347168026, 26.463640213012695 ], [ 75.72458648681652, 26.469739913940543 ], [ 75.707298278808594, 26.449098587036076 ], [ 75.692901611328182, 26.449939727783203 ], [ 75.693466186523494, 26.454769134521541 ], [ 75.684516906738338, 26.455682754516829 ], [ 75.678405761718807, 26.45786094665533 ], [ 75.679016113281534, 26.46315956115734 ], [ 75.672042846679858, 26.464582443237362 ], [ 75.659652709961108, 26.465030670166016 ], [ 75.650062561035099, 26.47022819519043 ], [ 75.647758483887003, 26.467941284179631 ], [ 75.649406433105526, 26.463260650634709 ], [ 75.649536132812671, 26.457679748535156 ], [ 75.644721984863224, 26.449300765991438 ], [ 75.63858795166044, 26.446590423584041 ], [ 75.619972229004077, 26.445510864257869 ], [ 75.612396240234432, 26.44353103637718 ], [ 75.606117248535213, 26.445770263671989 ], [ 75.595100402832315, 26.447170257568416 ], [ 75.591087341308878, 26.448860168456974 ], [ 75.584442138672159, 26.451660156250057 ], [ 75.578758239746264, 26.450010299682617 ], [ 75.569107055664119, 26.450269699096737 ], [ 75.570075988769588, 26.459220886230469 ], [ 75.571685791015625, 26.465469360351562 ], [ 75.571090698242472, 26.477010726928825 ], [ 75.562683105469034, 26.483049392700138 ], [ 75.554466247558878, 26.485130310058594 ], [ 75.547996520996378, 26.490310668945312 ], [ 75.544731140136832, 26.489040374755859 ], [ 75.543792724609659, 26.482700347900504 ], [ 75.528427124023608, 26.473632812500114 ], [ 75.522392272949276, 26.46719932556158 ], [ 75.516540527344034, 26.468799591064396 ], [ 75.510826110839787, 26.47202110290533 ], [ 75.503669738769588, 26.477371215820369 ], [ 75.501281738281534, 26.48307991027832 ], [ 75.498077392578296, 26.485008239746321 ], [ 75.493156433105469, 26.484050750732365 ], [ 75.481475830078125, 26.484809875488338 ], [ 75.458679199218807, 26.49518013000494 ], [ 75.447990417480526, 26.497108459472599 ], [ 75.443771362304744, 26.491579055786246 ], [ 75.439002990722713, 26.487779617309684 ], [ 75.432426452637003, 26.485401153564453 ], [ 75.418869018554972, 26.487520217895565 ], [ 75.412101745605526, 26.492679595947266 ], [ 75.405967712402514, 26.499210357666072 ], [ 75.405387878418139, 26.495189666748104 ], [ 75.408462524414233, 26.484849929809627 ], [ 75.390289306640568, 26.486629486084212 ], [ 75.385620117187557, 26.485799789428825 ], [ 75.382217407226676, 26.488058090210075 ], [ 75.377693176269474, 26.493858337402457 ], [ 75.367858886718807, 26.48998069763195 ], [ 75.353126525879077, 26.499490737915039 ], [ 75.347557067871037, 26.505329132080305 ], [ 75.344650268554801, 26.51288032531744 ], [ 75.342926025390739, 26.521280288696346 ], [ 75.339660644531307, 26.523080825805778 ], [ 75.332786560058651, 26.525220870971737 ], [ 75.334770202637003, 26.528339385986328 ], [ 75.336341857910327, 26.532949447631836 ], [ 75.335479736328182, 26.539100646972656 ], [ 75.331390380859546, 26.552850723266545 ], [ 75.329376220703182, 26.556440353393555 ], [ 75.326347351074503, 26.56188011169445 ], [ 75.321647644043139, 26.562328338623104 ], [ 75.316230773925895, 26.564439773559684 ], [ 75.308906555175781, 26.564319610595817 ], [ 75.291313171386719, 26.562328338623104 ], [ 75.28745269775419, 26.565401077270621 ], [ 75.282218933105526, 26.567689895629996 ], [ 75.277160644531534, 26.562440872192383 ], [ 75.268882751464901, 26.556301116943473 ], [ 75.264259338379077, 26.551509857177791 ], [ 75.250846862793253, 26.54519081115734 ], [ 75.250091552734318, 26.533790588378906 ], [ 75.247398376465128, 26.532688140869084 ], [ 75.239212036133097, 26.532199859619197 ], [ 75.235267639160327, 26.530040740966797 ], [ 75.232727050781534, 26.524770736694336 ], [ 75.228729248046818, 26.525510787963867 ], [ 75.225563049316463, 26.529689788818359 ], [ 75.220031738281307, 26.522329330444393 ], [ 75.213516235351733, 26.520650863647518 ], [ 75.208320617675724, 26.52072906494152 ], [ 75.201232910156534, 26.519201278686467 ], [ 75.195449829101619, 26.50929069519043 ], [ 75.191978454590014, 26.504919052124023 ], [ 75.195381164550952, 26.491449356079045 ], [ 75.196456909179972, 26.483919143676985 ], [ 75.190818786621264, 26.48666954040533 ], [ 75.185539245605526, 26.492429733276424 ], [ 75.18332672119169, 26.487630844116438 ], [ 75.173599243164347, 26.477991104126033 ], [ 75.16996002197294, 26.472461700439453 ], [ 75.16916656494152, 26.466228485107649 ], [ 75.165756225586222, 26.465589523315373 ], [ 75.158432006835994, 26.462129592895508 ], [ 75.157867431640682, 26.475521087646484 ], [ 75.154647827148494, 26.475580215454215 ], [ 75.155418395996151, 26.471940994262809 ], [ 75.152320861816463, 26.470550537109489 ], [ 75.147758483886776, 26.471050262451286 ], [ 75.144561767578239, 26.472682952880916 ], [ 75.140922546386776, 26.477390289306641 ], [ 75.142776489257812, 26.483341217041016 ], [ 75.147666931152287, 26.489290237426871 ], [ 75.148559570312557, 26.493780136108512 ], [ 75.148620605468693, 26.503650665283317 ], [ 75.136566162109659, 26.507499694824276 ], [ 75.111671447754077, 26.526990890503043 ], [ 75.117958068847827, 26.536800384521712 ], [ 75.119552612304744, 26.543680191040153 ], [ 75.119247436523381, 26.550300598144645 ], [ 75.110458374023722, 26.555259704589957 ], [ 75.100036621093921, 26.559379577636776 ], [ 75.093719482422046, 26.55845832824707 ], [ 75.077507019043139, 26.551950454711914 ], [ 75.073097229003849, 26.546409606933651 ], [ 75.067062377929744, 26.547399520874137 ], [ 75.057960510253963, 26.559270858764648 ], [ 75.061798095703409, 26.568630218505916 ], [ 75.063423156738452, 26.576749801635856 ], [ 75.067558288574162, 26.585660934448299 ], [ 75.076568603515796, 26.589941024780387 ], [ 75.075859069824276, 26.593299865722656 ], [ 75.078109741211108, 26.599319458007926 ], [ 75.077407836914119, 26.613250732421989 ], [ 75.063842773437557, 26.615631103515625 ], [ 75.060356140136889, 26.624959945678938 ], [ 75.061225891113565, 26.631879806518668 ], [ 75.065818786621378, 26.636039733886719 ], [ 75.063316345214957, 26.653949737548942 ], [ 75.056381225585994, 26.658121109008903 ], [ 75.047439575195369, 26.656721115112248 ], [ 75.03739166259794, 26.660829544067383 ], [ 75.037956237793253, 26.664810180664062 ], [ 75.029953002929972, 26.667240142822322 ], [ 75.026916503906534, 26.663311004638786 ], [ 75.021667480468807, 26.665929794311523 ], [ 75.017112731933651, 26.668521881103516 ], [ 75.016456604003906, 26.676071166992188 ], [ 75.008422851562784, 26.687200546264762 ], [ 75.009056091308764, 26.690290451049748 ], [ 74.995697021484546, 26.689731597900391 ], [ 74.969978332519588, 26.676229476928711 ], [ 74.967247009277344, 26.680660247802848 ], [ 74.961250305175838, 26.686639785766658 ], [ 74.959617614746094, 26.696180343628214 ], [ 74.959327697753963, 26.708988189697266 ], [ 74.963493347168026, 26.713361740112248 ], [ 74.960327148437784, 26.725381851196516 ], [ 74.940071105957088, 26.724250793457145 ], [ 74.941169738769531, 26.735500335693359 ], [ 74.963088989257983, 26.735651016235352 ], [ 74.995613098144815, 26.733858108520621 ], [ 74.996238708496094, 26.733989715576229 ], [ 74.996803283691349, 26.734199523925724 ], [ 74.997383117675781, 26.734470367431925 ], [ 74.997932434082315, 26.734750747680721 ], [ 74.998451232910213, 26.735090255737589 ], [ 74.998992919921932, 26.73546028137207 ], [ 74.999465942382756, 26.735860824585075 ], [ 74.999969482421932, 26.73628044128418 ], [ 75.000442504882812, 26.736722946167049 ], [ 75.000869750976562, 26.737180709838981 ], [ 75.001289367675838, 26.737640380859318 ], [ 75.001716613769815, 26.738121032715071 ], [ 75.002082824707145, 26.73861122131359 ], [ 75.002426147460994, 26.739099502563533 ], [ 75.002761840820483, 26.739612579345817 ], [ 75.003051757812784, 26.740129470825309 ], [ 75.003326416015796, 26.740650177001953 ], [ 75.003547668457088, 26.741188049316463 ], [ 75.003768920898494, 26.74173927307146 ], [ 75.003952026367244, 26.742280960083008 ], [ 75.004089355468921, 26.742839813232536 ], [ 75.004211425781534, 26.743391036987362 ], [ 75.004302978515625, 26.743959426880167 ], [ 75.004341125488338, 26.744529724121094 ], [ 75.00437164306652, 26.745082855224837 ], [ 75.004356384277401, 26.745651245117131 ], [ 75.004318237304744, 26.746200561523722 ], [ 75.004257202148438, 26.746759414673079 ], [ 75.004142761230526, 26.747310638427734 ], [ 75.004013061523722, 26.74784278869646 ], [ 75.003829956054972, 26.74838066101097 ], [ 75.00363922119169, 26.74888992309593 ], [ 75.003417968750114, 26.749401092529297 ], [ 75.003166198730526, 26.749879837036246 ], [ 75.002876281738565, 26.750329971313477 ], [ 75.002571105957202, 26.750789642334041 ], [ 75.002227783203182, 26.751222610473576 ], [ 75.001861572265682, 26.751632690429744 ], [ 75.001449584960994, 26.75200080871582 ], [ 75.001052856445483, 26.75233268737793 ], [ 75.000610351562443, 26.752651214599609 ], [ 75.000137329101619, 26.7529296875 ], [ 74.999679565429688, 26.753190994262695 ], [ 74.999176025390682, 26.753400802612589 ], [ 74.998657226562614, 26.753610610962141 ], [ 74.998130798339787, 26.753789901733512 ], [ 74.997581481933594, 26.753959655761946 ], [ 74.997016906738452, 26.754129409790039 ], [ 74.996452331543139, 26.754251480102653 ], [ 74.995597839355582, 26.75471115112299 ], [ 74.977500915527628, 26.765180587768612 ], [ 74.968376159667912, 26.762050628662337 ], [ 74.956161499023722, 26.756629943847884 ], [ 74.942520141601619, 26.746561050415266 ], [ 74.938262939453125, 26.748741149902344 ], [ 74.936286926269645, 26.752889633178711 ], [ 74.935417175293139, 26.766439437866381 ], [ 74.937339782715014, 26.783020019531364 ], [ 74.932022094726619, 26.781709671020621 ], [ 74.930107116699219, 26.796279907226619 ], [ 74.923400878906421, 26.793590545654411 ], [ 74.922447204590014, 26.813199996948299 ], [ 74.918212890624943, 26.830190658569563 ], [ 74.912277221679972, 26.839992523193359 ], [ 74.933341979980639, 26.844959259033203 ], [ 74.941513061523608, 26.848440170288086 ], [ 74.951995849609375, 26.849969863891715 ], [ 74.953292846679972, 26.851949691772688 ], [ 74.951187133789347, 26.860439300537109 ], [ 74.952499389648551, 26.870759963989371 ], [ 74.960136413574503, 26.875789642334098 ], [ 74.962898254394702, 26.879869461059627 ], [ 74.966087341308537, 26.886850357055664 ], [ 74.972167968750284, 26.893480300903434 ], [ 74.972839355468807, 26.89280128479021 ], [ 74.988258361816577, 26.891571044921875 ], [ 74.989181518554688, 26.893840789794979 ], [ 74.993576049804688, 26.893238067626953 ], [ 74.995346069335994, 26.896488189697266 ], [ 75.009635925293139, 26.898218154907283 ], [ 75.010375976562671, 26.916751861572493 ], [ 75.008438110351506, 26.939491271972656 ], [ 75.008850097656421, 26.948499679565543 ], [ 75.036888122558764, 26.944129943847713 ], [ 75.098075866699162, 26.93976020812994 ], [ 75.115531921386776, 26.935131072998161 ], [ 75.138221740722713, 26.934339523315657 ], [ 75.160591125488395, 26.936349868774641 ], [ 75.159729003906421, 26.952690124511946 ], [ 75.160781860351676, 26.965070724487362 ], [ 75.154716491699503, 26.97327041626005 ], [ 75.172691345215014, 26.974649429321346 ], [ 75.184722900390796, 26.976911544799918 ], [ 75.198837280273608, 26.977109909057731 ], [ 75.196372985839844, 26.998590469360636 ], [ 75.197715759277401, 27.005750656128043 ], [ 75.199218750000171, 27.010530471801985 ], [ 75.202560424804972, 27.01326942443859 ], [ 75.208358764648608, 27.012599945068359 ], [ 75.212303161621378, 27.015180587768612 ], [ 75.217071533203409, 27.017299652099723 ], [ 75.219146728515739, 27.019781112671126 ], [ 75.230239868164347, 27.021030426025391 ], [ 75.237846374512003, 27.019990921020508 ], [ 75.243347167968807, 27.028490066528377 ], [ 75.248107910156307, 27.03327751159685 ], [ 75.253952026367358, 27.037750244140682 ], [ 75.252120971679744, 27.042730331421012 ], [ 75.240730285644815, 27.044589996338004 ], [ 75.236129760742472, 27.053951263428019 ], [ 75.229660034179972, 27.055179595947266 ], [ 75.224357604980469, 27.058521270752067 ], [ 75.217796325683651, 27.058870315551871 ], [ 75.217826843262003, 27.076021194458121 ], [ 75.215812683105639, 27.086309432983398 ], [ 75.230850219726562, 27.088640213012638 ], [ 75.245140075683537, 27.09202957153343 ], [ 75.260406494140625, 27.093261718750227 ], [ 75.271926879882869, 27.093950271606559 ], [ 75.285026550293139, 27.094949722290039 ], [ 75.305137634277401, 27.093168258667163 ], [ 75.318611145019702, 27.09445953369152 ], [ 75.326232910156421, 27.095581054687557 ], [ 75.329742431640682, 27.098310470581055 ], [ 75.332153320312671, 27.098358154296875 ], [ 75.334541320800895, 27.097200393677042 ], [ 75.339363098144474, 27.093500137329329 ], [ 75.34525299072294, 27.089611053466911 ], [ 75.353073120117472, 27.090299606323242 ], [ 75.362846374511889, 27.091329574585018 ], [ 75.363006591796818, 27.098609924316634 ], [ 75.363426208496264, 27.104570388794173 ], [ 75.362457275390625, 27.110612869262695 ], [ 75.360801696777401, 27.113861083984602 ], [ 75.357688903808594, 27.115341186523608 ], [ 75.354301452636719, 27.11383056640625 ], [ 75.349090576171818, 27.112960815429801 ], [ 75.344062805175838, 27.112779617309798 ], [ 75.342330932617244, 27.115970611572266 ], [ 75.341888427734546, 27.120870590210188 ], [ 75.335449218750057, 27.121419906616268 ], [ 75.335548400878849, 27.124362945556641 ], [ 75.335868835449332, 27.132520675659407 ], [ 75.338729858398551, 27.138992309570483 ], [ 75.338882446289119, 27.143320083618278 ], [ 75.335800170898438, 27.143600463867244 ], [ 75.331726074218693, 27.140848159790153 ], [ 75.327629089355526, 27.142320632934627 ], [ 75.327392578125171, 27.146579742431868 ], [ 75.324722290039233, 27.151189804077205 ], [ 75.320426940918082, 27.149642944335938 ], [ 75.312820434570597, 27.150510787964151 ], [ 75.310630798339901, 27.162820816040153 ], [ 75.309967041015909, 27.172910690307617 ], [ 75.310531616211222, 27.184810638427678 ], [ 75.311515808105412, 27.197410583496321 ], [ 75.315132141113224, 27.205989837646428 ], [ 75.316856384277287, 27.211860656738281 ], [ 75.321548461914119, 27.212488174438477 ], [ 75.32309722900402, 27.217540740967024 ], [ 75.334472656250057, 27.217060089111328 ], [ 75.341369628906307, 27.216241836547795 ], [ 75.345176696777401, 27.219619750976506 ], [ 75.348472595215128, 27.223680496215763 ], [ 75.352226257324276, 27.22913932800293 ], [ 75.355957031249943, 27.230850219726676 ], [ 75.363700866699276, 27.231941223144759 ], [ 75.369956970214901, 27.231679916381893 ], [ 75.381996154785213, 27.232530593872127 ], [ 75.386100769042969, 27.234180450439567 ], [ 75.385520935058537, 27.242710113525618 ], [ 75.383621215820312, 27.25768089294445 ], [ 75.384712219238565, 27.270751953125 ], [ 75.387229919433537, 27.278610229492358 ], [ 75.389183044433764, 27.286260604858455 ], [ 75.382659912109318, 27.286180496215934 ], [ 75.375236511230469, 27.28740119934082 ], [ 75.374786376953239, 27.293388366699332 ], [ 75.385131835937443, 27.293100357055607 ], [ 75.393257141113338, 27.29403114318859 ], [ 75.402976989746151, 27.295820236206168 ], [ 75.412536621093807, 27.293830871582031 ], [ 75.423881530761889, 27.291440963745231 ], [ 75.426483154297159, 27.297960281372127 ], [ 75.426261901855526, 27.304830551147404 ], [ 75.433662414550838, 27.302959442138729 ], [ 75.447219848632869, 27.301010131836051 ], [ 75.451362609863452, 27.292720794677848 ], [ 75.460899353027514, 27.29231071472168 ], [ 75.470649719238281, 27.293050765991211 ], [ 75.472557067871094, 27.29850959777832 ], [ 75.480072021484489, 27.298849105835018 ], [ 75.481246948242472, 27.30315017700201 ], [ 75.485282897949219, 27.307561874389648 ], [ 75.5009765625, 27.318412780761832 ], [ 75.503021240234375, 27.333431243896484 ], [ 75.515892028808651, 27.338960647583065 ], [ 75.524681091308651, 27.347810745239371 ], [ 75.566535949707031, 27.345819473266658 ], [ 75.570213317871094, 27.34064865112299 ], [ 75.571090698242472, 27.331790924072493 ], [ 75.566978454589901, 27.315610885620345 ], [ 75.572113037109546, 27.313699722289982 ], [ 75.573699951171932, 27.310321807861271 ], [ 75.584053039551065, 27.311590194702205 ], [ 75.585533142089901, 27.313119888305778 ], [ 75.589828491211108, 27.312231063842887 ], [ 75.592926025390682, 27.312519073486555 ], [ 75.596946716308651, 27.314970016479492 ], [ 75.607612609863338, 27.318780899047908 ], [ 75.614089965820369, 27.328359603881836 ], [ 75.622337341308651, 27.344440460205362 ], [ 75.642761230468864, 27.34169960021984 ], [ 75.653930664062671, 27.342100143432674 ], [ 75.658889770507983, 27.348600387573299 ], [ 75.660560607910099, 27.357040405273494 ], [ 75.658988952637003, 27.369928359985465 ], [ 75.672599792480639, 27.37499046325695 ], [ 75.685829162597713, 27.376171112060717 ], [ 75.699836730957315, 27.375650405883903 ], [ 75.718505859375284, 27.373350143432617 ], [ 75.715957641601619, 27.379762649536133 ], [ 75.714431762695369, 27.386930465698299 ], [ 75.716171264648494, 27.388580322265739 ], [ 75.723861694336222, 27.390569686889876 ], [ 75.727401733398494, 27.400030136108398 ], [ 75.733093261718921, 27.40837287902832 ], [ 75.748596191406307, 27.407100677490291 ], [ 75.762527465820369, 27.407329559326229 ], [ 75.767639160156307, 27.406490325927734 ], [ 75.770057678222656, 27.400142669677848 ], [ 75.771263122558651, 27.388820648193587 ], [ 75.780509948730753, 27.387510299682674 ], [ 75.787368774414347, 27.385061264038143 ], [ 75.793876647949162, 27.392210006713867 ], [ 75.798736572265682, 27.401559829711971 ], [ 75.804527282715128, 27.40924072265625 ], [ 75.809509277344034, 27.402421951293945 ], [ 75.823837280273438, 27.393890380859432 ], [ 75.831306457519702, 27.400600433349609 ], [ 75.839225769043082, 27.404840469360465 ], [ 75.848922729492244, 27.402330398559627 ], [ 75.852867126465014, 27.396030426025447 ], [ 75.859886169433594, 27.392482757568473 ], [ 75.871170043945483, 27.393590927124023 ], [ 75.871658325195597, 27.39402961730957 ], [ 75.876937866210994, 27.402902603149471 ], [ 75.872276306152287, 27.411769866943644 ], [ 75.863960266113338, 27.420810699462891 ], [ 75.864799499512003, 27.427980422973633 ], [ 75.878181457519474, 27.451339721679801 ], [ 75.888687133789062, 27.460931777954386 ], [ 75.899719238281534, 27.459461212158317 ], [ 75.912796020507869, 27.459360122680721 ], [ 75.913101196289062, 27.463371276855582 ], [ 75.917633056640909, 27.465669631958121 ], [ 75.920005798340014, 27.469219207763672 ], [ 75.929649353027628, 27.467720031738395 ], [ 75.932952880859546, 27.47268295288103 ], [ 75.937995910644588, 27.476280212402401 ], [ 75.944869995117244, 27.474191665649471 ], [ 75.947311401367244, 27.480539321899528 ], [ 75.953819274902401, 27.480619430542049 ], [ 75.958518981933764, 27.476430892944393 ], [ 75.962486267089787, 27.481859207153377 ], [ 75.968086242675781, 27.481889724731559 ], [ 75.972381591797159, 27.479970932006836 ], [ 75.978652954101676, 27.482349395752067 ], [ 75.974357604980639, 27.490009307861328 ], [ 75.978668212890909, 27.495161056518668 ], [ 75.971527099609432, 27.505809783935661 ], [ 75.962539672851733, 27.50757026672369 ], [ 75.932281494140682, 27.501281738281364 ], [ 75.931106567382869, 27.500810623168888 ], [ 75.931976318359318, 27.506780624389762 ], [ 75.936531066894815, 27.521631240844727 ], [ 75.942108154297046, 27.534481048584155 ], [ 75.94500732421875, 27.551210403442383 ], [ 75.944023132324389, 27.559709548950309 ], [ 75.945777893066463, 27.56931114196783 ], [ 75.936042785644531, 27.572469711303711 ], [ 75.939086914062671, 27.579748153686523 ], [ 75.945297241211222, 27.588350296020621 ], [ 75.952873229980526, 27.596229553222884 ], [ 75.959907531738338, 27.598711013794116 ], [ 75.957656860351619, 27.604780197143782 ], [ 75.952827453613281, 27.603269577026424 ], [ 75.950096130371037, 27.600210189819393 ], [ 75.94547271728544, 27.602281570434513 ], [ 75.941146850585938, 27.596099853515739 ], [ 75.934921264648494, 27.597171783447379 ], [ 75.939460754394702, 27.606460571289062 ], [ 75.938858032226562, 27.616130828857422 ], [ 75.934928894043026, 27.626079559326399 ], [ 75.942687988281421, 27.628440856933651 ], [ 75.952247619629077, 27.6267604827882 ], [ 75.957199096679858, 27.628730773926065 ], [ 75.95263671875, 27.63509941101097 ], [ 75.949089050293082, 27.642740249633789 ], [ 75.951416015625284, 27.646511077880916 ], [ 75.962249755859489, 27.648599624633903 ], [ 75.972236633300781, 27.660028457641715 ], [ 75.983947753906307, 27.707599639892862 ], [ 75.99356842041044, 27.719200134277344 ], [ 75.995231628418026, 27.720220565796012 ], [ 76.006706237793253, 27.726432800292969 ], [ 76.020866394042969, 27.731250762939737 ], [ 76.027381896972827, 27.736000061035156 ], [ 76.028442382812784, 27.744928359985465 ], [ 76.034317016601619, 27.756000518798885 ], [ 76.049263000488565, 27.776428222656421 ], [ 76.059471130371151, 27.775430679321403 ], [ 76.063392639160099, 27.779239654541243 ], [ 76.065368652343807, 27.787799835205135 ], [ 76.06851959228544, 27.796119689941634 ], [ 76.073539733886889, 27.80640029907255 ], [ 76.081947326660327, 27.811420440673828 ], [ 76.085639953613338, 27.817270278930664 ], [ 76.089118957519815, 27.827751159667969 ], [ 76.089790344238338, 27.834808349609375 ], [ 76.085998535156307, 27.840269088745117 ], [ 76.081771850585994, 27.845489501953125 ], [ 76.080093383789119, 27.851070404052734 ], [ 76.084762573242188, 27.856389999389762 ], [ 76.085639953613338, 27.865222930908203 ], [ 76.088066101074276, 27.868448257446346 ], [ 76.095771789551065, 27.864799499511946 ], [ 76.103347778320369, 27.86237907409668 ], [ 76.11258697509794, 27.858581542968693 ], [ 76.122138977050724, 27.854400634765625 ], [ 76.128456115722827, 27.846921920776367 ], [ 76.128227233887003, 27.837841033935661 ], [ 76.127769470214901, 27.833200454711971 ], [ 76.14267730712902, 27.827831268310717 ], [ 76.153190612793253, 27.821292877197209 ], [ 76.162841796875057, 27.814840316772745 ], [ 76.167343139648381, 27.80914115905756 ] ] ] } }
]
}
