{
"type": "FeatureCollection",
"name": "sikar",
"crs": { "type": "name", "properties": { "name": "urn:ogc:def:crs:OGC:1.3:CRS84" } },
"features": [
{ "type": "Feature", "properties": { "state": "Rajasthan", "district": "Sikar" }, "geometry": { "type": "Polygon", "coordinates": [ [ [ 75.005332946777457, 28.197620391845646 ], [ 75.007728576660327, 28.195241928100586 ], [ 75.017440795898608, 28.199550628662109 ], [ 75.022605895996264, 28.200950622558537 ], [ 75.024581909179744, 28.198352813720817 ], [ 75.031066894531307, 28.197111129760742 ], [ 75.032485961914062, 28.19514083862299 ], [ 75.036346435546875, 28.194049835205078 ], [ 75.057586669921989, 28.195381164550895 ], [ 75.067329406738565, 28.195011138916016 ], [ 75.074050903320256, 28.193370819091911 ], [ 75.078636169433594, 28.189479827880859 ], [ 75.073188781738338, 28.183481216430664 ], [ 75.056076049804972, 28.175251007080192 ], [ 75.049186706543026, 28.16984939575201 ], [ 75.048141479492358, 28.165220260620401 ], [ 75.048538208007983, 28.158929824829158 ], [ 75.055191040039233, 28.162031173706055 ], [ 75.065826416015909, 28.161191940307731 ], [ 75.082611083984659, 28.162351608276481 ], [ 75.087646484375171, 28.157770156860352 ], [ 75.091270446777514, 28.157358169555664 ], [ 75.094940185546932, 28.155731201172159 ], [ 75.096931457519474, 28.153459548950309 ], [ 75.103912353515682, 28.151649475097884 ], [ 75.104248046875, 28.14906120300293 ], [ 75.107116699218807, 28.14673042297369 ], [ 75.113716125488224, 28.143131256103516 ], [ 75.116859436035213, 28.139530181884822 ], [ 75.121719360351847, 28.137832641601562 ], [ 75.123428344726847, 28.13408088684082 ], [ 75.123756408691463, 28.130140304565373 ], [ 75.123298645019702, 28.125690460205362 ], [ 75.121696472168253, 28.123039245605696 ], [ 75.105796813964901, 28.114999771118164 ], [ 75.110488891601562, 28.095100402831974 ], [ 75.110809326171989, 28.088792800903434 ], [ 75.10434722900419, 28.086919784545955 ], [ 75.100486755371151, 28.083209991455078 ], [ 75.097045898437557, 28.078422546386946 ], [ 75.095306396484432, 28.072948455810604 ], [ 75.095878601074276, 28.067279815673885 ], [ 75.104316711425895, 28.052690505981502 ], [ 75.111801147461222, 28.048841476440543 ], [ 75.114631652832315, 28.041851043701172 ], [ 75.119186401367244, 28.037490844726506 ], [ 75.123123168945483, 28.028240203857365 ], [ 75.129486083984432, 28.026718139648665 ], [ 75.141677856445369, 28.028808593750057 ], [ 75.150138854980753, 28.010919570922908 ], [ 75.154319763183878, 28.002500534057731 ], [ 75.155822753906364, 27.993009567260685 ], [ 75.151809692382926, 27.989280700683594 ], [ 75.157707214355526, 27.974130630493391 ], [ 75.168350219726619, 27.960710525512695 ], [ 75.174850463867244, 27.960409164428711 ], [ 75.190467834472713, 27.966850280761776 ], [ 75.191482543945426, 27.961980819702148 ], [ 75.188972473144588, 27.960010528564624 ], [ 75.189971923828409, 27.939380645751953 ], [ 75.18863677978544, 27.92284011840826 ], [ 75.188659667969034, 27.913730621337947 ], [ 75.195930480956974, 27.913101196289176 ], [ 75.198867797851619, 27.903139114379883 ], [ 75.202049255371094, 27.895420074462947 ], [ 75.197906494140682, 27.89225959777832 ], [ 75.205352783203182, 27.884250640869141 ], [ 75.213211059570369, 27.882600784301815 ], [ 75.223426818847827, 27.880990982055664 ], [ 75.231132507324276, 27.859371185302791 ], [ 75.237472534179972, 27.845840454101562 ], [ 75.236862182617244, 27.835840225219954 ], [ 75.234718322753963, 27.831979751587085 ], [ 75.234123229980639, 27.827302932739371 ], [ 75.235328674316463, 27.813779830932617 ], [ 75.244140625000284, 27.817888259887752 ], [ 75.256240844726733, 27.821540832519645 ], [ 75.268669128418026, 27.82212066650402 ], [ 75.280891418457088, 27.819520950317496 ], [ 75.283760070800838, 27.815668106079215 ], [ 75.283271789551065, 27.805259704589901 ], [ 75.285697937011776, 27.800251007080135 ], [ 75.284912109375057, 27.778470993041992 ], [ 75.283248901367472, 27.773710250854663 ], [ 75.273330688476847, 27.77006912231451 ], [ 75.258018493652401, 27.767509460449446 ], [ 75.272079467773608, 27.743780136108398 ], [ 75.282821655273494, 27.719438552856445 ], [ 75.300765991210994, 27.713289260864201 ], [ 75.316062927246378, 27.710470199585075 ], [ 75.318885803222713, 27.70720100402832 ], [ 75.321395874023722, 27.69889068603527 ], [ 75.343368530273381, 27.703790664672852 ], [ 75.353126525879077, 27.696331024170036 ], [ 75.360908508300724, 27.6950111389163 ], [ 75.365707397461108, 27.689371109009016 ], [ 75.367828369140796, 27.685831069946232 ], [ 75.373687744140568, 27.68461990356451 ], [ 75.371841430664233, 27.681350708007926 ], [ 75.369140625000171, 27.67887115478527 ], [ 75.370109558105639, 27.664577484130859 ], [ 75.370376586914119, 27.654951095581112 ], [ 75.371147155761776, 27.646709442138729 ], [ 75.381187438965014, 27.652032852172965 ], [ 75.387191772461222, 27.661619186401595 ], [ 75.401306152344034, 27.659931182861271 ], [ 75.402236938476619, 27.652629852295036 ], [ 75.411460876464787, 27.647630691528434 ], [ 75.427619934082145, 27.647542953491325 ], [ 75.434516906738565, 27.659111022949219 ], [ 75.445701599121151, 27.657920837402457 ], [ 75.455101013183878, 27.666620254516602 ], [ 75.460296630859375, 27.675510406494197 ], [ 75.464073181152628, 27.687480926513729 ], [ 75.468772888183651, 27.695030212402571 ], [ 75.475646972656307, 27.687900543212947 ], [ 75.492042541503963, 27.690580368042049 ], [ 75.502738952636776, 27.696189880371321 ], [ 75.508438110351619, 27.696018218994141 ], [ 75.515342712402401, 27.697380065918082 ], [ 75.517593383789119, 27.701700210571289 ], [ 75.522186279296932, 27.706069946289119 ], [ 75.527740478515682, 27.706779479980469 ], [ 75.529663085937614, 27.712930679321289 ], [ 75.541717529297159, 27.709039688110465 ], [ 75.549873352050895, 27.71105003356945 ], [ 75.556747436523551, 27.706710815429801 ], [ 75.561653137207088, 27.70215034484886 ], [ 75.570007324218921, 27.709009170532454 ], [ 75.582336425781534, 27.703971862793026 ], [ 75.583602905273494, 27.708780288696289 ], [ 75.583007812500057, 27.712640762329329 ], [ 75.593261718750171, 27.712339401245345 ], [ 75.602867126464901, 27.708789825439453 ], [ 75.612899780273608, 27.706701278686637 ], [ 75.630287170410327, 27.720170974731445 ], [ 75.642051696777287, 27.721281051635799 ], [ 75.658187866210994, 27.717220306396484 ], [ 75.655265808105639, 27.706779479980469 ], [ 75.651382446289347, 27.699268341064453 ], [ 75.654373168945369, 27.690389633178768 ], [ 75.659507751464901, 27.681810379028434 ], [ 75.661010742187557, 27.680170059204102 ], [ 75.662742614746151, 27.678260803222884 ], [ 75.670318603515796, 27.677312850952262 ], [ 75.682098388672159, 27.677560806274471 ], [ 75.687141418457088, 27.687240600585994 ], [ 75.688873291015682, 27.695240020751953 ], [ 75.688240051269702, 27.703939437866268 ], [ 75.689567565917969, 27.711589813232536 ], [ 75.693916320801065, 27.717510223388786 ], [ 75.700042724609318, 27.71924972534174 ], [ 75.699913024902344, 27.725601196289176 ], [ 75.704353332519588, 27.731100082397575 ], [ 75.705680847168026, 27.738700866699276 ], [ 75.708328247070369, 27.743940353393555 ], [ 75.712150573730526, 27.748750686645792 ], [ 75.710472106933707, 27.752061843872241 ], [ 75.704826354980469, 27.755701065063477 ], [ 75.704551696777401, 27.760080337524414 ], [ 75.718276977539119, 27.776519775390739 ], [ 75.722740173339787, 27.786672592163086 ], [ 75.733322143554744, 27.8048095703125 ], [ 75.747337341308537, 27.817529678344954 ], [ 75.762649536132983, 27.837551116943359 ], [ 75.787681579589901, 27.850950241088867 ], [ 75.797386169433651, 27.86227989196783 ], [ 75.810516357422046, 27.86565017700218 ], [ 75.820503234863338, 27.873571395874137 ], [ 75.840049743652344, 27.88231086730957 ], [ 75.857849121093807, 27.89302062988304 ], [ 75.890083312988338, 27.919181823730582 ], [ 75.898162841796989, 27.914129257202205 ], [ 75.900367736816577, 27.919490814209098 ], [ 75.907226562500171, 27.922649383544979 ], [ 75.913352966308651, 27.927240371704215 ], [ 75.923622131347827, 27.933090209960994 ], [ 75.928779602050952, 27.926481246948242 ], [ 75.928833007812557, 27.916809082031421 ], [ 75.941749572754077, 27.919080734252987 ], [ 75.955886840820369, 27.919549942016658 ], [ 75.967536926269588, 27.915370941162109 ], [ 75.977386474609375, 27.909259796142578 ], [ 75.967247009277628, 27.899311065673771 ], [ 75.975189208984432, 27.893091201782283 ], [ 75.972801208496094, 27.885379791259709 ], [ 75.973457336425838, 27.877452850341854 ], [ 75.964256286621264, 27.871509552002124 ], [ 75.963081359863281, 27.864730834960938 ], [ 75.975448608398722, 27.864629745483512 ], [ 75.984275817871264, 27.862869262695369 ], [ 75.994476318359489, 27.860919952392692 ], [ 75.99662017822294, 27.86016845703125 ], [ 76.005249023437671, 27.857440948486555 ], [ 76.009307861328182, 27.86260986328125 ], [ 76.020790100097713, 27.857521057128963 ], [ 76.029617309570597, 27.853889465332088 ], [ 76.033836364746094, 27.854181289672908 ], [ 76.038398742675724, 27.852500915527344 ], [ 76.043685913086051, 27.848850250244197 ], [ 76.049629211426065, 27.847860336303654 ], [ 76.05478668212919, 27.85182189941429 ], [ 76.060028076171932, 27.85717964172369 ], [ 76.080093383789119, 27.851070404052734 ], [ 76.081771850585994, 27.845489501953125 ], [ 76.085998535156307, 27.840269088745117 ], [ 76.089790344238338, 27.834808349609375 ], [ 76.089118957519815, 27.827751159667969 ], [ 76.085639953613338, 27.817270278930664 ], [ 76.081947326660327, 27.811420440673828 ], [ 76.073539733886889, 27.80640029907255 ], [ 76.06851959228544, 27.796119689941634 ], [ 76.065368652343807, 27.787799835205135 ], [ 76.063392639160099, 27.779239654541243 ], [ 76.059471130371151, 27.775430679321403 ], [ 76.049263000488565, 27.776428222656421 ], [ 76.034317016601619, 27.756000518798885 ], [ 76.028442382812784, 27.744928359985465 ], [ 76.027381896972827, 27.736000061035156 ], [ 76.020866394042969, 27.731250762939737 ], [ 76.006706237793253, 27.726432800292969 ], [ 75.995231628418026, 27.720220565796012 ], [ 75.99356842041044, 27.719200134277344 ], [ 75.983947753906307, 27.707599639892862 ], [ 75.972236633300781, 27.660028457641715 ], [ 75.962249755859489, 27.648599624633903 ], [ 75.951416015625284, 27.646511077880916 ], [ 75.949089050293082, 27.642740249633789 ], [ 75.95263671875, 27.63509941101097 ], [ 75.957199096679858, 27.628730773926065 ], [ 75.952247619629077, 27.6267604827882 ], [ 75.942687988281421, 27.628440856933651 ], [ 75.934928894043026, 27.626079559326399 ], [ 75.938858032226562, 27.616130828857422 ], [ 75.939460754394702, 27.606460571289062 ], [ 75.934921264648494, 27.597171783447379 ], [ 75.941146850585938, 27.596099853515739 ], [ 75.94547271728544, 27.602281570434513 ], [ 75.950096130371037, 27.600210189819393 ], [ 75.952827453613281, 27.603269577026424 ], [ 75.957656860351619, 27.604780197143782 ], [ 75.959907531738338, 27.598711013794116 ], [ 75.952873229980526, 27.596229553222884 ], [ 75.945297241211222, 27.588350296020621 ], [ 75.939086914062671, 27.579748153686523 ], [ 75.936042785644531, 27.572469711303711 ], [ 75.945777893066463, 27.56931114196783 ], [ 75.944023132324389, 27.559709548950309 ], [ 75.94500732421875, 27.551210403442383 ], [ 75.942108154297046, 27.534481048584155 ], [ 75.936531066894815, 27.521631240844727 ], [ 75.931976318359318, 27.506780624389762 ], [ 75.931106567382869, 27.500810623168888 ], [ 75.932281494140682, 27.501281738281364 ], [ 75.962539672851733, 27.50757026672369 ], [ 75.971527099609432, 27.505809783935661 ], [ 75.978668212890909, 27.495161056518668 ], [ 75.974357604980639, 27.490009307861328 ], [ 75.978652954101676, 27.482349395752067 ], [ 75.972381591797159, 27.479970932006836 ], [ 75.968086242675781, 27.481889724731559 ], [ 75.962486267089787, 27.481859207153377 ], [ 75.958518981933764, 27.476430892944393 ], [ 75.953819274902401, 27.480619430542049 ], [ 75.947311401367244, 27.480539321899528 ], [ 75.944869995117244, 27.474191665649471 ], [ 75.937995910644588, 27.476280212402401 ], [ 75.932952880859546, 27.47268295288103 ], [ 75.929649353027628, 27.467720031738395 ], [ 75.920005798340014, 27.469219207763672 ], [ 75.917633056640909, 27.465669631958121 ], [ 75.913101196289062, 27.463371276855582 ], [ 75.912796020507869, 27.459360122680721 ], [ 75.899719238281534, 27.459461212158317 ], [ 75.888687133789062, 27.460931777954386 ], [ 75.878181457519474, 27.451339721679801 ], [ 75.864799499512003, 27.427980422973633 ], [ 75.863960266113338, 27.420810699462891 ], [ 75.872276306152287, 27.411769866943644 ], [ 75.876937866210994, 27.402902603149471 ], [ 75.871658325195597, 27.39402961730957 ], [ 75.871170043945483, 27.393590927124023 ], [ 75.859886169433594, 27.392482757568473 ], [ 75.852867126465014, 27.396030426025447 ], [ 75.848922729492244, 27.402330398559627 ], [ 75.839225769043082, 27.404840469360465 ], [ 75.831306457519702, 27.400600433349609 ], [ 75.823837280273438, 27.393890380859432 ], [ 75.809509277344034, 27.402421951293945 ], [ 75.804527282715128, 27.40924072265625 ], [ 75.798736572265682, 27.401559829711971 ], [ 75.793876647949162, 27.392210006713867 ], [ 75.787368774414347, 27.385061264038143 ], [ 75.780509948730753, 27.387510299682674 ], [ 75.771263122558651, 27.388820648193587 ], [ 75.770057678222656, 27.400142669677848 ], [ 75.767639160156307, 27.406490325927734 ], [ 75.762527465820369, 27.407329559326229 ], [ 75.748596191406307, 27.407100677490291 ], [ 75.733093261718921, 27.40837287902832 ], [ 75.727401733398494, 27.400030136108398 ], [ 75.723861694336222, 27.390569686889876 ], [ 75.716171264648494, 27.388580322265739 ], [ 75.714431762695369, 27.386930465698299 ], [ 75.715957641601619, 27.379762649536133 ], [ 75.718505859375284, 27.373350143432617 ], [ 75.699836730957315, 27.375650405883903 ], [ 75.685829162597713, 27.376171112060717 ], [ 75.672599792480639, 27.37499046325695 ], [ 75.658988952637003, 27.369928359985465 ], [ 75.660560607910099, 27.357040405273494 ], [ 75.658889770507983, 27.348600387573299 ], [ 75.653930664062671, 27.342100143432674 ], [ 75.642761230468864, 27.34169960021984 ], [ 75.622337341308651, 27.344440460205362 ], [ 75.614089965820369, 27.328359603881836 ], [ 75.607612609863338, 27.318780899047908 ], [ 75.596946716308651, 27.314970016479492 ], [ 75.592926025390682, 27.312519073486555 ], [ 75.589828491211108, 27.312231063842887 ], [ 75.585533142089901, 27.313119888305778 ], [ 75.584053039551065, 27.311590194702205 ], [ 75.573699951171932, 27.310321807861271 ], [ 75.572113037109546, 27.313699722289982 ], [ 75.566978454589901, 27.315610885620345 ], [ 75.571090698242472, 27.331790924072493 ], [ 75.570213317871094, 27.34064865112299 ], [ 75.566535949707031, 27.345819473266658 ], [ 75.524681091308651, 27.347810745239371 ], [ 75.515892028808651, 27.338960647583065 ], [ 75.503021240234375, 27.333431243896484 ], [ 75.5009765625, 27.318412780761832 ], [ 75.485282897949219, 27.307561874389648 ], [ 75.481246948242472, 27.30315017700201 ], [ 75.480072021484489, 27.298849105835018 ], [ 75.472557067871094, 27.29850959777832 ], [ 75.470649719238281, 27.293050765991211 ], [ 75.460899353027514, 27.29231071472168 ], [ 75.451362609863452, 27.292720794677848 ], [ 75.447219848632869, 27.301010131836051 ], [ 75.433662414550838, 27.302959442138729 ], [ 75.426261901855526, 27.304830551147404 ], [ 75.426483154297159, 27.297960281372127 ], [ 75.423881530761889, 27.291440963745231 ], [ 75.412536621093807, 27.293830871582031 ], [ 75.402976989746151, 27.295820236206168 ], [ 75.393257141113338, 27.29403114318859 ], [ 75.385131835937443, 27.293100357055607 ], [ 75.374786376953239, 27.293388366699332 ], [ 75.375236511230469, 27.28740119934082 ], [ 75.382659912109318, 27.286180496215934 ], [ 75.389183044433764, 27.286260604858455 ], [ 75.387229919433537, 27.278610229492358 ], [ 75.384712219238565, 27.270751953125 ], [ 75.383621215820312, 27.25768089294445 ], [ 75.385520935058537, 27.242710113525618 ], [ 75.386100769042969, 27.234180450439567 ], [ 75.381996154785213, 27.232530593872127 ], [ 75.369956970214901, 27.231679916381893 ], [ 75.363700866699276, 27.231941223144759 ], [ 75.355957031249943, 27.230850219726676 ], [ 75.352226257324276, 27.22913932800293 ], [ 75.348472595215128, 27.223680496215763 ], [ 75.345176696777401, 27.219619750976506 ], [ 75.341369628906307, 27.216241836547795 ], [ 75.334472656250057, 27.217060089111328 ], [ 75.32309722900402, 27.217540740967024 ], [ 75.321548461914119, 27.212488174438477 ], [ 75.316856384277287, 27.211860656738281 ], [ 75.315132141113224, 27.205989837646428 ], [ 75.311515808105412, 27.197410583496321 ], [ 75.310531616211222, 27.184810638427678 ], [ 75.309967041015909, 27.172910690307617 ], [ 75.310630798339901, 27.162820816040153 ], [ 75.300727844238338, 27.148349761963004 ], [ 75.294578552246264, 27.147171020507812 ], [ 75.294662475585994, 27.13816070556669 ], [ 75.295616149902401, 27.132709503173942 ], [ 75.27677154541044, 27.126720428466854 ], [ 75.270156860351733, 27.132278442382812 ], [ 75.267379760742244, 27.136880874633903 ], [ 75.248092651367244, 27.135560989379826 ], [ 75.244743347168253, 27.132417678833235 ], [ 75.232841491699276, 27.129079818725813 ], [ 75.230270385742188, 27.129949569702148 ], [ 75.229957580566463, 27.137491226196289 ], [ 75.22013092041044, 27.138652801513615 ], [ 75.203475952148494, 27.136869430542049 ], [ 75.200836181640739, 27.132881164550781 ], [ 75.195709228515909, 27.132061004638729 ], [ 75.192779541015682, 27.136610031127873 ], [ 75.191276550293026, 27.143960952758789 ], [ 75.173171997070426, 27.144332885742358 ], [ 75.166862487793026, 27.147071838378963 ], [ 75.166442871093807, 27.151729583740462 ], [ 75.174880981445369, 27.157871246338004 ], [ 75.173789978027628, 27.163909912109659 ], [ 75.167350769043139, 27.164222717285384 ], [ 75.158882141113565, 27.163381576538143 ], [ 75.156066894531193, 27.166830062866268 ], [ 75.152359008789119, 27.167200088501261 ], [ 75.149726867676065, 27.170480728149414 ], [ 75.141189575195256, 27.170970916748104 ], [ 75.129173278808537, 27.172809600830078 ], [ 75.123466491699219, 27.176830291748047 ], [ 75.120857238769588, 27.181671142578068 ], [ 75.115417480469034, 27.184648513794002 ], [ 75.112815856933764, 27.187299728393668 ], [ 75.116043090820483, 27.191408157348746 ], [ 75.118377685546932, 27.199211120605412 ], [ 75.116676330566463, 27.206449508666992 ], [ 75.114891052246264, 27.209400177002237 ], [ 75.119926452636776, 27.214372634887695 ], [ 75.103965759277628, 27.223100662231388 ], [ 75.090286254882983, 27.222471237182617 ], [ 75.075225830078296, 27.223119735718001 ], [ 75.066581726074503, 27.222629547119311 ], [ 75.072456359863338, 27.231489181518612 ], [ 75.076721191406193, 27.239681243896541 ], [ 75.084251403808651, 27.247140884399357 ], [ 75.10263824462919, 27.254470825195426 ], [ 75.112800598144702, 27.266210556030501 ], [ 75.124137878418026, 27.277690887451286 ], [ 75.131729125976619, 27.28717041015625 ], [ 75.144119262695369, 27.284641265869197 ], [ 75.154060363769588, 27.284299850463867 ], [ 75.154930114746094, 27.295810699463004 ], [ 75.160499572754077, 27.307901382446516 ], [ 75.162269592285213, 27.319669723510856 ], [ 75.147697448730639, 27.326349258422852 ], [ 75.131568908691463, 27.327980041503906 ], [ 75.122512817382812, 27.338541030883789 ], [ 75.120246887207202, 27.342239379882926 ], [ 75.110778808593807, 27.341201782226619 ], [ 75.102783203125057, 27.341579437256144 ], [ 75.101318359374943, 27.346050262451172 ], [ 75.110336303711108, 27.347709655761946 ], [ 75.109626770019588, 27.35397911071783 ], [ 75.113090515136832, 27.358631134033203 ], [ 75.110862731933537, 27.361061096191634 ], [ 75.112258911132812, 27.368650436401595 ], [ 75.112503051757869, 27.379810333251953 ], [ 75.098892211914233, 27.385759353637809 ], [ 75.088859558105526, 27.386369705200138 ], [ 75.078720092773494, 27.388130187988338 ], [ 75.068130493164006, 27.388509750366325 ], [ 75.051933288574219, 27.384649276733455 ], [ 75.041511535644588, 27.38046073913597 ], [ 75.039337158203068, 27.375499725341911 ], [ 75.042068481445312, 27.371410369873047 ], [ 75.032402038574276, 27.360099792480696 ], [ 75.022979736328296, 27.355079650878906 ], [ 75.013236999511889, 27.353679656982422 ], [ 75.004028320312784, 27.349960327148438 ], [ 74.994583129882869, 27.351768493652457 ], [ 74.954795837402628, 27.350931167602539 ], [ 74.941581726074276, 27.349319458007756 ], [ 74.940757751465014, 27.34430122375494 ], [ 74.934097290039233, 27.338729858398494 ], [ 74.924400329589901, 27.339048385620174 ], [ 74.914070129394702, 27.338260650634993 ], [ 74.893287658691577, 27.332782745361442 ], [ 74.892639160156534, 27.329719543457031 ], [ 74.893852233886889, 27.322160720825195 ], [ 74.892242431640909, 27.315450668335018 ], [ 74.886917114258097, 27.313350677490519 ], [ 74.880790710449503, 27.312219619750977 ], [ 74.874092102050838, 27.313560485840071 ], [ 74.871986389160213, 27.321939468383789 ], [ 74.864387512207315, 27.330471038818416 ], [ 74.861587524414062, 27.337619781494141 ], [ 74.868125915527401, 27.341600418090991 ], [ 74.873703002929744, 27.347810745239371 ], [ 74.872726440429744, 27.358310699462947 ], [ 74.868522644043026, 27.37489128112793 ], [ 74.863952636718807, 27.37346076965332 ], [ 74.855171203613338, 27.374639511108342 ], [ 74.848487854003963, 27.378179550171126 ], [ 74.839729309082088, 27.381538391113565 ], [ 74.841072082519588, 27.385259628295955 ], [ 74.846321105957031, 27.394191741943473 ], [ 74.867866516113224, 27.414781570434684 ], [ 74.85923004150402, 27.430419921875 ], [ 74.857933044433878, 27.437660217285156 ], [ 74.855003356933651, 27.447210311889705 ], [ 74.851806640625284, 27.453119277954215 ], [ 74.840316772460994, 27.455528259277457 ], [ 74.797836303711222, 27.452499389648551 ], [ 74.795257568359375, 27.454570770263672 ], [ 74.792930603027514, 27.45951080322277 ], [ 74.793312072754077, 27.466220855712947 ], [ 74.797111511230469, 27.473148345947379 ], [ 74.793296813964844, 27.484920501709041 ], [ 74.789260864258097, 27.488180160522631 ], [ 74.782241821289062, 27.488269805908146 ], [ 74.777320861816577, 27.491039276123274 ], [ 74.771423339843807, 27.491331100463981 ], [ 74.765670776367358, 27.494430541992301 ], [ 74.764350891113452, 27.49406814575201 ], [ 74.75815582275419, 27.492380142212028 ], [ 74.749671936035156, 27.488489151001033 ], [ 74.749580383301065, 27.493721008300781 ], [ 74.745719909668026, 27.497240066528491 ], [ 74.746040344238452, 27.503660202026424 ], [ 74.725097656250057, 27.495250701904524 ], [ 74.721420288086108, 27.500480651855696 ], [ 74.717796325683764, 27.503749847412109 ], [ 74.715766906738338, 27.510549545288313 ], [ 74.717399597168139, 27.517150878906534 ], [ 74.714828491210994, 27.52416038513212 ], [ 74.717582702636719, 27.52919960021984 ], [ 74.713088989257869, 27.53280067443859 ], [ 74.71103668212919, 27.540018081665266 ], [ 74.73831939697294, 27.556669235229492 ], [ 74.756057739258097, 27.570220947265625 ], [ 74.755943298340014, 27.573600769043082 ], [ 74.752990722656364, 27.579389572143612 ], [ 74.755599975585994, 27.583110809326172 ], [ 74.750076293945369, 27.5931911468507 ], [ 74.735557556152344, 27.587642669677678 ], [ 74.731407165527401, 27.592880249023551 ], [ 74.730178833007983, 27.601221084594783 ], [ 74.724708557128963, 27.605150222778263 ], [ 74.722450256347713, 27.609970092773665 ], [ 74.715370178222713, 27.606700897217081 ], [ 74.708045959472656, 27.602170944214151 ], [ 74.700508117675838, 27.595119476318359 ], [ 74.696243286132983, 27.610540390014762 ], [ 74.695037841797159, 27.619510650634766 ], [ 74.69748687744152, 27.627138137817383 ], [ 74.705078125000057, 27.630849838257006 ], [ 74.704193115234659, 27.635250091552962 ], [ 74.704986572265625, 27.641519546508903 ], [ 74.701766967773608, 27.64856147766119 ], [ 74.695762634277457, 27.654199600219727 ], [ 74.685089111328239, 27.65574073791521 ], [ 74.680618286132983, 27.658311843872184 ], [ 74.675498962402401, 27.669620513916129 ], [ 74.68509674072294, 27.675018310547102 ], [ 74.692657470703182, 27.676780700683707 ], [ 74.707756042480526, 27.678821563720646 ], [ 74.725379943847599, 27.678489685058707 ], [ 74.731376647949276, 27.681640625 ], [ 74.734550476074219, 27.685169219970703 ], [ 74.738990783691406, 27.687700271606559 ], [ 74.743026733398494, 27.691938400268782 ], [ 74.74326324462902, 27.700420379638842 ], [ 74.746780395507983, 27.719350814819506 ], [ 74.738052368164119, 27.721801757812614 ], [ 74.731185913085994, 27.722408294677962 ], [ 74.721626281738452, 27.720058441162109 ], [ 74.722930908203296, 27.725231170654297 ], [ 74.721931457519815, 27.729749679565543 ], [ 74.722419738769588, 27.736270904541016 ], [ 74.725006103515568, 27.744409561157227 ], [ 74.735527038574389, 27.766920089721737 ], [ 74.748077392578068, 27.769601821899414 ], [ 74.755241394043026, 27.767469406128157 ], [ 74.762413024902514, 27.771141052246321 ], [ 74.769767761230582, 27.773588180542049 ], [ 74.781608581543253, 27.780429840088004 ], [ 74.781723022460994, 27.784671783447209 ], [ 74.793731689453125, 27.787469863891886 ], [ 74.79074859619152, 27.794048309326172 ], [ 74.811347961425895, 27.802291870117301 ], [ 74.804611206054744, 27.81759071350109 ], [ 74.802680969238452, 27.820531845092887 ], [ 74.790756225586051, 27.839452743530387 ], [ 74.774017333984318, 27.834529876709041 ], [ 74.762481689453182, 27.848859786987475 ], [ 74.761199951172159, 27.856550216675032 ], [ 74.744407653808707, 27.860000610351619 ], [ 74.734703063965128, 27.857601165771484 ], [ 74.729270935058651, 27.860439300537109 ], [ 74.723640441894815, 27.864850997924805 ], [ 74.723556518554744, 27.869520187378157 ], [ 74.725242614746264, 27.870929718017578 ], [ 74.730751037597827, 27.873018264770565 ], [ 74.737419128417969, 27.877990722656364 ], [ 74.731140136718921, 27.880292892456055 ], [ 74.728950500488395, 27.88418006896984 ], [ 74.732276916504077, 27.891550064087141 ], [ 74.745018005371378, 27.892652511596793 ], [ 74.758926391601847, 27.897790908813477 ], [ 74.777969360351676, 27.901460647583235 ], [ 74.787071228027401, 27.898721694946289 ], [ 74.794746398925838, 27.898860931396541 ], [ 74.815139770507869, 27.909820556640682 ], [ 74.822875976562671, 27.913049697875977 ], [ 74.824661254882869, 27.922210693359602 ], [ 74.818130493164233, 27.931129455566406 ], [ 74.814826965332315, 27.940532684326172 ], [ 74.805229187011776, 27.942501068115291 ], [ 74.795356750488565, 27.946811676025391 ], [ 74.774978637695256, 27.958080291748047 ], [ 74.762222290039233, 27.979129791259993 ], [ 74.75815582275419, 27.983961105346907 ], [ 74.755058288574276, 27.990079879760799 ], [ 74.760238647461051, 27.991830825805664 ], [ 74.766029357910156, 27.995109558105582 ], [ 74.779296875000057, 28.00299072265625 ], [ 74.786369323730582, 28.00858116149908 ], [ 74.788063049316463, 28.025409698486328 ], [ 74.79001617431669, 28.030458450317496 ], [ 74.797073364258097, 28.033250808716048 ], [ 74.796966552734546, 28.043291091918945 ], [ 74.801887512207031, 28.060739517211971 ], [ 74.799346923828409, 28.06624984741228 ], [ 74.789627075195597, 28.074649810791016 ], [ 74.785736083984432, 28.076030731201399 ], [ 74.781578063964901, 28.080169677734489 ], [ 74.780517578125, 28.087160110473633 ], [ 74.782997131347656, 28.107170104980469 ], [ 74.787429809570483, 28.115419387817383 ], [ 74.791656494140682, 28.119020462036133 ], [ 74.795928955078409, 28.119380950927848 ], [ 74.800209045410327, 28.118419647216911 ], [ 74.804496765137003, 28.116220474243391 ], [ 74.809951782226619, 28.115221023559741 ], [ 74.816459655761776, 28.115280151367301 ], [ 74.823326110839901, 28.117130279540959 ], [ 74.831466674804858, 28.125192642212141 ], [ 74.849983215332202, 28.136051177978516 ], [ 74.851272583007756, 28.141120910644531 ], [ 74.850387573242244, 28.143791198730469 ], [ 74.852340698242244, 28.142892837524414 ], [ 74.854316711425724, 28.142900466919002 ], [ 74.86138916015625, 28.147661209106445 ], [ 74.874603271484375, 28.170680999755973 ], [ 74.877006530762003, 28.173709869384822 ], [ 74.879142761230639, 28.185981750488509 ], [ 74.880638122558537, 28.190120697021598 ], [ 74.885810852050781, 28.194400787353516 ], [ 74.891548156738452, 28.195650100708121 ], [ 74.897468566894702, 28.195720672607422 ], [ 74.905242919921818, 28.198400497436637 ], [ 74.911003112793139, 28.19945144653326 ], [ 74.914566040039347, 28.198400497436637 ], [ 74.927337646484659, 28.198230743408203 ], [ 74.932083129882926, 28.197219848632869 ], [ 74.937576293945369, 28.191030502319336 ], [ 74.941223144531307, 28.189920425415323 ], [ 74.958969116210994, 28.197420120239258 ], [ 74.985626220703182, 28.201400756835938 ], [ 74.993049621582031, 28.203731536865234 ], [ 75.00077056884794, 28.203390121459904 ], [ 75.002418518066463, 28.199159622192383 ], [ 75.005332946777457, 28.197620391845646 ] ] ] } }
]
}
